CCSDS_OMM_VERS = 2.0
CREATION_DATE  = 
ORIGINATOR     = 

OBJECT_NAME    = SL-4 R/B
OBJECT_ID      = 2014-021B
CENTER_NAME    = EARTH
REF_FRAME      = TEME
TIME_SYSTEM    = UTC
MEAN_ELEMENT_THEORY = SGP/SGP4

EPOCH          = 2025-12-28T03:45:44.269632
MEAN_MOTION    = 15.37036693
ECCENTRICITY   = .0100497
INCLINATION    = 51.6090
RA_OF_ASC_NODE = 325.6498
ARG_OF_PERICENTER = 201.9034
MEAN_ANOMALY   = 157.7638

EPHEMERIS_TYPE = 0
CLASSIFICATION_TYPE = U
NORAD_CAT_ID   = 39679
ELEMENT_SET_NO = 999
REV_AT_EPOCH   = 64526
BSTAR          = .31403E-3
MEAN_MOTION_DOT = .13292E-3
MEAN_MOTION_DDOT = 0

CCSDS_OMM_VERS = 2.0
CREATION_DATE  = 
ORIGINATOR     = 

OBJECT_NAME    = ALOS-2
OBJECT_ID      = 2014-029A
CENTER_NAME    = EARTH
REF_FRAME      = TEME
TIME_SYSTEM    = UTC
MEAN_ELEMENT_THEORY = SGP/SGP4

EPOCH          = 2025-12-28T05:32:36.155328
MEAN_MOTION    = 14.79474809
ECCENTRICITY   = .0001463
INCLINATION    = 97.9215
RA_OF_ASC_NODE = 96.8558
ARG_OF_PERICENTER = 103.1930
MEAN_ANOMALY   = 256.9445

EPHEMERIS_TYPE = 0
CLASSIFICATION_TYPE = U
NORAD_CAT_ID   = 39766
ELEMENT_SET_NO = 999
REV_AT_EPOCH   = 62630
BSTAR          = .34908E-3
MEAN_MOTION_DOT = .2557E-4
MEAN_MOTION_DDOT = 0

CCSDS_OMM_VERS = 2.0
CREATION_DATE  = 
ORIGINATOR     = 

OBJECT_NAME    = YAOGAN-29
OBJECT_ID      = 2015-069A
CENTER_NAME    = EARTH
REF_FRAME      = TEME
TIME_SYSTEM    = UTC
MEAN_ELEMENT_THEORY = SGP/SGP4

EPOCH          = 2025-12-28T04:54:15.835680
MEAN_MOTION    = 14.82897979
ECCENTRICITY   = .0001069
INCLINATION    = 98.0211
RA_OF_ASC_NODE = 25.4246
ARG_OF_PERICENTER = 158.3197
MEAN_ANOMALY   = 201.8062

EPHEMERIS_TYPE = 0
CLASSIFICATION_TYPE = U
NORAD_CAT_ID   = 41038
ELEMENT_SET_NO = 999
REV_AT_EPOCH   = 54528
BSTAR          = .24484E-4
MEAN_MOTION_DOT = .144E-5
MEAN_MOTION_DDOT = 0

CCSDS_OMM_VERS = 2.0
CREATION_DATE  = 
ORIGINATOR     = 

OBJECT_NAME    = ASTRO-H (HITOMI)
OBJECT_ID      = 2016-012A
CENTER_NAME    = EARTH
REF_FRAME      = TEME
TIME_SYSTEM    = UTC
MEAN_ELEMENT_THEORY = SGP/SGP4

EPOCH          = 2025-12-27T23:11:01.440960
MEAN_MOTION    = 15.09455068
ECCENTRICITY   = .0009659
INCLINATION    = 30.9995
RA_OF_ASC_NODE = 99.2030
ARG_OF_PERICENTER = 331.2708
MEAN_ANOMALY   = 28.7397

EPHEMERIS_TYPE = 0
CLASSIFICATION_TYPE = U
NORAD_CAT_ID   = 41337
ELEMENT_SET_NO = 999
REV_AT_EPOCH   = 54138
BSTAR          = .2756E-3
MEAN_MOTION_DOT = .4619E-4
MEAN_MOTION_DDOT = 0

CCSDS_OMM_VERS = 2.0
CREATION_DATE  = 
ORIGINATOR     = 

OBJECT_NAME    = HXMT (HUIYAN)
OBJECT_ID      = 2017-034A
CENTER_NAME    = EARTH
REF_FRAME      = TEME
TIME_SYSTEM    = UTC
MEAN_ELEMENT_THEORY = SGP/SGP4

EPOCH          = 2025-12-28T04:55:09.028704
MEAN_MOTION    = 15.16424299
ECCENTRICITY   = .0031564
INCLINATION    = 43.0146
RA_OF_ASC_NODE = 53.7976
ARG_OF_PERICENTER = 144.6900
MEAN_ANOMALY   = 215.6046

EPHEMERIS_TYPE = 0
CLASSIFICATION_TYPE = U
NORAD_CAT_ID   = 42758
ELEMENT_SET_NO = 999
REV_AT_EPOCH   = 47168
BSTAR          = .41174E-3
MEAN_MOTION_DOT = .802E-4
MEAN_MOTION_DDOT = 0

CCSDS_OMM_VERS = 2.0
CREATION_DATE  = 
ORIGINATOR     = 

OBJECT_NAME    = CZ-2C R/B
OBJECT_ID      = 2018-054D
CENTER_NAME    = EARTH
REF_FRAME      = TEME
TIME_SYSTEM    = UTC
MEAN_ELEMENT_THEORY = SGP/SGP4

EPOCH          = 2025-12-27T13:26:52.824768
MEAN_MOTION    = 15.77311118
ECCENTRICITY   = .00141846
INCLINATION    = 35.1325
RA_OF_ASC_NODE = 80.1600
ARG_OF_PERICENTER = 290.6341
MEAN_ANOMALY   = 69.2872

EPHEMERIS_TYPE = 0
CLASSIFICATION_TYPE = U
NORAD_CAT_ID   = 43521
ELEMENT_SET_NO = 999
REV_AT_EPOCH   = 41739
BSTAR          = .8327415E-3
MEAN_MOTION_DOT = .145742E-2
MEAN_MOTION_DDOT = 0

CCSDS_OMM_VERS = 2.0
CREATION_DATE  = 
ORIGINATOR     = 

OBJECT_NAME    = SAOCOM 1A
OBJECT_ID      = 2018-076A
CENTER_NAME    = EARTH
REF_FRAME      = TEME
TIME_SYSTEM    = UTC
MEAN_ELEMENT_THEORY = SGP/SGP4

EPOCH          = 2025-12-28T04:47:03.966144
MEAN_MOTION    = 14.82146964
ECCENTRICITY   = .000134
INCLINATION    = 97.8847
RA_OF_ASC_NODE = 186.3959
ARG_OF_PERICENTER = 83.0822
MEAN_ANOMALY   = 277.0543

EPHEMERIS_TYPE = 0
CLASSIFICATION_TYPE = U
NORAD_CAT_ID   = 43641
ELEMENT_SET_NO = 999
REV_AT_EPOCH   = 39077
BSTAR          = -.24301E-4
MEAN_MOTION_DOT = -.246E-5
MEAN_MOTION_DDOT = 0

CCSDS_OMM_VERS = 2.0
CREATION_DATE  = 
ORIGINATOR     = 

OBJECT_NAME    = H-2A R/B
OBJECT_ID      = 2018-084L
CENTER_NAME    = EARTH
REF_FRAME      = TEME
TIME_SYSTEM    = UTC
MEAN_ELEMENT_THEORY = SGP/SGP4

EPOCH          = 2025-12-28T01:12:16.879104
MEAN_MOTION    = 15.37951582
ECCENTRICITY   = .0026389
INCLINATION    = 98.8773
RA_OF_ASC_NODE = 199.3091
ARG_OF_PERICENTER = 272.6168
MEAN_ANOMALY   = 87.2051

EPHEMERIS_TYPE = 0
CLASSIFICATION_TYPE = U
NORAD_CAT_ID   = 43682
ELEMENT_SET_NO = 999
REV_AT_EPOCH   = 39475
BSTAR          = .63738E-3
MEAN_MOTION_DOT = .2401E-3
MEAN_MOTION_DDOT = 0

CCSDS_OMM_VERS = 2.0
CREATION_DATE  = 
ORIGINATOR     = 

OBJECT_NAME    = SAOCOM 1B
OBJECT_ID      = 2020-059A
CENTER_NAME    = EARTH
REF_FRAME      = TEME
TIME_SYSTEM    = UTC
MEAN_ELEMENT_THEORY = SGP/SGP4

EPOCH          = 2025-12-28T03:54:51.069312
MEAN_MOTION    = 14.82155334
ECCENTRICITY   = .0001464
INCLINATION    = 97.8845
RA_OF_ASC_NODE = 185.4601
ARG_OF_PERICENTER = 84.6084
MEAN_ANOMALY   = 275.5296

EPHEMERIS_TYPE = 0
CLASSIFICATION_TYPE = U
NORAD_CAT_ID   = 46265
ELEMENT_SET_NO = 999
REV_AT_EPOCH   = 28815
BSTAR          = .93372E-4
MEAN_MOTION_DOT = .691E-5
MEAN_MOTION_DDOT = 0

CCSDS_OMM_VERS = 2.0
CREATION_DATE  = 
ORIGINATOR     = 

OBJECT_NAME    = CSS (TIANHE)
OBJECT_ID      = 2021-035A
CENTER_NAME    = EARTH
REF_FRAME      = TEME
TIME_SYSTEM    = UTC
MEAN_ELEMENT_THEORY = SGP/SGP4

EPOCH          = 2025-12-28T03:33:34.580160
MEAN_MOTION    = 15.59789598
ECCENTRICITY   = .0008946
INCLINATION    = 41.4673
RA_OF_ASC_NODE = 283.1187
ARG_OF_PERICENTER = 164.7819
MEAN_ANOMALY   = 195.3290

EPHEMERIS_TYPE = 0
CLASSIFICATION_TYPE = U
NORAD_CAT_ID   = 48274
ELEMENT_SET_NO = 999
REV_AT_EPOCH   = 26643
BSTAR          = .26879E-3
MEAN_MOTION_DOT = .21938E-3
MEAN_MOTION_DDOT = 0

CCSDS_OMM_VERS = 2.0
CREATION_DATE  = 
ORIGINATOR     = 

OBJECT_NAME    = COSMOS 2550
OBJECT_ID      = 2021-056A
CENTER_NAME    = EARTH
REF_FRAME      = TEME
TIME_SYSTEM    = UTC
MEAN_ELEMENT_THEORY = SGP/SGP4

EPOCH          = 2025-12-28T01:11:45.246336
MEAN_MOTION    = 15.33830504
ECCENTRICITY   = .0008373
INCLINATION    = 67.1448
RA_OF_ASC_NODE = 257.6257
ARG_OF_PERICENTER = 269.7459
MEAN_ANOMALY   = 90.2736

EPHEMERIS_TYPE = 0
CLASSIFICATION_TYPE = U
NORAD_CAT_ID   = 48865
ELEMENT_SET_NO = 999
REV_AT_EPOCH   = 25247
BSTAR          = .12962E-5
MEAN_MOTION_DOT = -.149E-5
MEAN_MOTION_DDOT = 0

CCSDS_OMM_VERS = 2.0
CREATION_DATE  = 
ORIGINATOR     = 

OBJECT_NAME    = CZ-2C R/B
OBJECT_ID      = 2022-058K
CENTER_NAME    = EARTH
REF_FRAME      = TEME
TIME_SYSTEM    = UTC
MEAN_ELEMENT_THEORY = SGP/SGP4

EPOCH          = 2025-12-27T15:29:38.508576
MEAN_MOTION    = 15.49275197
ECCENTRICITY   = .00444614
INCLINATION    = 50.1923
RA_OF_ASC_NODE = 327.4922
ARG_OF_PERICENTER = 259.8008
MEAN_ANOMALY   = 99.7944

EPHEMERIS_TYPE = 0
CLASSIFICATION_TYPE = U
NORAD_CAT_ID   = 52794
ELEMENT_SET_NO = 999
REV_AT_EPOCH   = 19894
BSTAR          = .64697349E-3
MEAN_MOTION_DOT = .37206E-3
MEAN_MOTION_DDOT = 0

