SL-4 R/B                
1 39679U 14021B   25362.15676238  .00013292  00000+0  31403-3 0  9998
2 39679  51.6090 325.6498 0100497 201.9034 157.7638 15.37036693645267
ALOS-2                  
1 39766U 14029A   25362.23097402  .00002557  00000+0  34908-3 0  9997
2 39766  97.9215  96.8558 0001463 103.1930 256.9445 14.79474809626303
YAOGAN-29               
1 41038U 15069A   25362.20434995  .00000144  00000+0  24484-4 0  9995
2 41038  98.0211  25.4246 0001069 158.3197 201.8062 14.82897979545289
ASTRO-H (HITOMI)        
1 41337U 16012A   25361.96598890  .00004619  00000+0  27560-3 0  9991
2 41337  30.9995  99.2030 0009659 331.2708  28.7397 15.09455068541381
HXMT (HUIYAN)           
1 42758U 17034A   25362.20496561  .00008020  00000+0  41174-3 0  9991
2 42758  43.0146  53.7976 0031564 144.6900 215.6046 15.16424299471689
CZ-2C R/B               
1 43521U 18054D   25361.56033362  .00145742  00000+0  83274-3 0  9997
2 43521  35.1325  80.1600 0014184 290.6341  69.2872 15.77311118417397
SAOCOM 1A               
1 43641U 18076A   25362.19935146 -.00000246  00000+0 -24301-4 0  9993
2 43641  97.8847 186.3959 0001340  83.0822 277.0543 14.82146964390774
H-2A R/B                
1 43682U 18084L   25362.05019536  .00024010  00000+0  63738-3 0  9997
2 43682  98.8773 199.3091 0026389 272.6168  87.2051 15.37951582394756
SAOCOM 1B               
1 46265U 20059A   25362.16309108  .00000691  00000+0  93372-4 0  9998
2 46265  97.8845 185.4601 0001464  84.6084 275.5296 14.82155334288152
CSS (TIANHE)            
1 48274U 21035A   25362.14831690  .00021938  00000+0  26879-3 0  9993
2 48274  41.4673 283.1187 0008946 164.7819 195.3290 15.59789598266431
COSMOS 2550             
1 48865U 21056A   25362.04982924 -.00000149  00000+0  12962-5 0  9990
2 48865  67.1448 257.6257 0008373 269.7459  90.2736 15.33830504252479
CZ-2C R/B               
1 52794U 22058K   25361.64558459  .00037206  00000+0  64697-3 0  9999
2 52794  50.1923 327.4922 0044461 259.8008  99.7944 15.49275197198942
